satname,norad_id,inclination_deg,eccentricity,mean_motion_rev_per_day,perigee_km,apogee_km,l1,l2
STARLINK-1465,45731,53.0521,0.0001686,15.06398474,546.0486203570354,548.3838494678475,1 45731U 20038B   25297.77027272 -.00000718  00000+0 -29295-4 0  9990,2 45731  53.0521 126.7828 0001686  83.8792 276.2389 15.06398474295707
STARLINK-1471,45735,53.0519,0.0001998,15.40535637,443.1642190421662,445.8905557313665,1 45735U 20038F   25297.74262082  .00026344  00000+0  64652-3 0  9997,2 45735  53.0519  68.8287 0001998 137.8665 222.2493 15.40535637296528
STARLINK-1474,45738,53.0398,0.0003133,15.65678896,369.1723754618579,373.40156452145493,1 45738U 20038J   25297.63504767  .00079567  00000+0  77177-3 0  9998,2 45738  53.0398  27.9429 0003133 294.9247  65.1442 15.65678896297086
STARLINK-1475,45739,53.0499,0.0005347,15.73480113,345.3626988731676,352.55665606005005,1 45739U 20038K   25297.83336806  .00050766  00000+0  35933-3 0  9992,2 45739  53.0499 353.9096 0005347 331.3412 212.3002 15.73480113  5997
STARLINK-1480,45741,53.0517,0.0001404,15.06402505,546.2315626250829,548.1761983443239,1 45741U 20038M   25297.81819633  .00002233  00000+0  16877-3 0  9999,2 45741  53.0517 126.5692 0001404  88.7067 271.4083 15.06402505295728
STARLINK-1500,45744,53.0369,0.0004011,15.27132652,481.63638470940623,487.14150302157486,1 45744U 20038Q   25297.75866174  .00025550  00000+0  95710-3 0  9997,2 45744  53.0369 106.6314 0004011 165.9197 194.1913 15.27132652295993
STARLINK-1504,45746,53.0295,0.0003503,15.39598974,444.90334525040544,449.68524241486466,1 45746U 20038S   25297.62638282  .00083889  00000+0  20852-2 0  9995,2 45746  53.0295  72.4706 0003503 172.5948 187.5107 15.39598974296450
STARLINK-1506,45747,53.0539,0.0003123,15.21100842,500.3700301106346,504.6676877601258,1 45747U 20038T   25297.75351464  .00015378  00000+0  69578-3 0  9991,2 45747  53.0539 108.8537 0003123 183.0419 177.0558 15.21100842295969
STARLINK-1464,45751,53.0524,0.0001408,15.06372924,546.3194424603134,548.2696439828851,1 45751U 20038X   25295.96234267 -.00000407  00000+0 -84092-5 0  9997,2 45751  53.0524 114.9000 0001408  87.5794 272.5356 15.06372924295725
STARLINK-1477,45754,53.0526,0.0001416,15.06396162,546.242689859042,548.2039519019154,1 45754U 20038AA  25297.70208002  .00000403  00000+0  45983-4 0  9991,2 45754  53.0526 107.0877 0001416  86.7119 273.4032 15.06396162295985
STARLINK-1478,45755,53.0533,0.0001277,15.06387476,546.3655705478759,548.1343143729791,1 45755U 20038AB  25297.78686509  .00000065  00000+0  23242-4 0  9990,2 45755  53.0533 106.7098 0001277  88.8837 271.2298 15.06387476295988
STARLINK-1484,45756,53.0175,0.0001215,15.59251799,388.99896101711147,390.6435748762233,1 45756U 20038AC  25297.83336806  .00030908  00000+0  39118-3 0  9996,2 45756  53.0175  14.7139 0001215 298.9880 296.2912 15.59251799  5962
STARLINK-1493,45759,53.0537,0.0001319,15.06391091,546.3254057984032,548.1523199510284,1 45759U 20038AF  25297.84215672 -.00000343  00000+0 -41231-5 0  9990,2 45759  53.0537 106.4604 0001319  86.3260 273.7880 15.06391091295999
STARLINK-1494,45760,53.0542,0.0001093,15.50758953,413.766481028767,415.25135342627345,1 45760U 20038AG  25297.83497228  .00041885  00000+0  71933-3 0  9994,2 45760  53.0542  93.7037 0001093  12.1978 347.9057 15.50758953296182
STARLINK-1502,45764,53.0529,0.0001254,15.06396482,546.3539000613246,548.0907801838275,1 45764U 20038AL  25297.74263009 -.00001133  00000+0 -57168-4 0  9995,2 45764  53.0529 106.9061 0001254  91.9407 268.1726 15.06396482295997
STARLINK-1470,45772,53.0488,0.0004278,15.17255663,511.19052982483754,517.0875612093814,1 45772U 20038AU  25297.77983586  .00038770  00000+0  19293-2 0  9996,2 45772  53.0488  79.7318 0004278 194.6820 165.4051 15.17255663296371
STARLINK-1482,45773,53.0536,0.0001276,15.06391164,546.3549612064799,548.1223170695876,1 45773U 20038AV  25297.84030522 -.00001575  00000+0 -86886-4 0  9997,2 45773  53.0536  86.4684 0001276  87.6573 272.4562 15.06391164296289
STARLINK-1485,45774,53.0429,0.0007038,16.03769793,259.31496408767634,268.6644216205377,1 45774U 20038AW  25297.62064583  .00638551  20449-3  97746-3 0  9995,2 45774  53.0429  19.8383 0007038 356.0593   4.0382 16.03769793297199
STARLINK-1496,45780,53.0539,0.0001326,15.06400202,546.2926377007489,548.1292399741287,1 45780U 20038BC  25297.80713834  .00001089  00000+0  91997-4 0  9992,2 45780  53.0539  86.6173 0001326  87.6599 272.4542 15.06400202296269
STARLINK-1497,45781,53.041,0.0005783,15.5216663,406.47560088837963,414.32722441645365,1 45781U 20038BD  25297.83336806  .00159616  00000+0  25464-2 0  9990,2 45781  53.0410  34.0834 0005783 240.7683 273.3880 15.52166630  5927
STARLINK-1510,45784,53.0338,0.0001109,15.67234535,366.0718904992382,367.56792194103764,1 45784U 20038BG  25297.83336806  .00106925  00000+0  96939-3 0  9994,2 45784  53.0338  11.0324 0001109 101.2847 281.0555 15.67234535  5920
STARLINK-1513,45786,53.0541,0.0001603,15.06392577,546.1241714368452,548.3444454783366,1 45786U 20038BJ  25297.70392421 -.00000527  00000+0 -16486-4 0  9990,2 45786  53.0541  87.0838 0001603 100.0188 260.0982 15.06392577296269
STARLINK-1522,46027,53.0562,0.000136,15.0639502,546.2849714834238,548.1686704427248,1 46027U 20055A   25297.61824068  .00000496  00000+0  52164-4 0  9991,2 46027  53.0562  17.4651 0001360  90.6712 269.4433 15.06395020288371
STARLINK-1523,46028,53.0563,0.0001523,15.06427288,546.0732075628121,548.1826432590933,1 46028U 20055B   25297.63297392 -.00004710  00000+0 -29729-3 0  9993,2 46028  53.0563  17.4014 0001523  96.8174 263.2988 15.06427288288398
STARLINK-1526,46029,53.0546,0.0001419,15.06394499,546.245708409514,548.2111271150761,1 46029U 20055C   25297.49290941 -.00002463  00000+0 -14653-3 0  9994,2 46029  53.0546  18.0269 0001419  99.8954 260.2195 15.06394499288363
STARLINK-1555,46032,53.055,0.0001399,15.06400619,546.2408047952331,548.1785167909229,1 46032U 20055F   25297.54451874  .00006544  00000+0  45777-3 0  9991,2 46032  53.0550  17.7979 0001399  88.7152 271.3998 15.06400619288377
STARLINK-1556,46033,53.0553,0.0001259,15.06391378,546.3660785421298,548.1098879629126,1 46033U 20055G   25297.45974616 -.00000605  00000+0 -21714-4 0  9996,2 46033  53.0553  18.1808 0001259  86.0733 274.0400 15.06391378288333
STARLINK-1557,46034,53.0554,0.0001315,15.06393156,546.3218477982709,548.1432199856836,1 46034U 20055H   25297.52977041  .00001226  00000+0  10117-3 0  9992,2 46034  53.0554  17.8635 0001315  95.3677 264.7462 15.06393156288343
